STARLINK-3096           
1 49131U 21082B   23295.67812034 -.00000721  00000+0 -52653-4 0  9999
2 49131  69.9976 285.5310 0003279 271.6925  88.3859 14.98318970116798
STARLINK-3077           
1 49133U 21082D   23296.17509721  .00000587  00000+0  57004-4 0  9996
2 49133  69.9985 324.2918 0002765 271.4005  88.6837 14.98327798115887
STARLINK-3084           
1 49136U 21082G   23296.20406941  .00002557  00000+0  22197-3 0  9996
2 49136  69.9979 304.2104 0002063 270.9694  89.1229 14.98339713116395
STARLINK-3057           
1 49139U 21082K   23296.19966560  .00000273  00000+0  30701-4 0  9999
2 49139  69.9992 284.2167 0002494 257.6408 102.4471 14.98329223116878
STARLINK-3116           
1 49146U 21082S   23295.45719290  .00000965  00000+0  88668-4 0  9994
2 49146  69.9996 306.1050 0002644 265.1270  94.9588 14.98329115117429
STARLINK-3053           
1 49149U 21082V   23295.81626294  .00001089  00000+0  99006-4 0  9994
2 49149  70.0021 325.1889 0002063 271.2109  88.8814 14.98328846117030
STARLINK-3056           
1 49159U 21082AF  23295.80791474  .00001108  00000+0  10063-3 0  9994
2 49159  69.9995 325.2165 0002500 277.7949  82.2926 14.98331309116922
STARLINK-3080           
1 49161U 21082AH  23295.79957068  .00001049  00000+0  95714-4 0  9999
2 49161  70.0000 325.2185 0002190 271.9821  88.1087 14.98324803116909
STARLINK-3087           
1 49175U 21082AX  23296.17069357  .00001072  00000+0  97658-4 0  9997
2 49175  69.9980 304.3073 0002916 270.7055  89.3770 14.98326207116377
STARLINK-5236           
1 55274U 23010F   23295.73180254 -.00002951  00000+0 -23988-3 0  9991
2 55274  69.9996  55.5736 0002891 264.6103  95.4726 14.98296675 43115
STARLINK-5260           
1 55275U 23010G   23295.72760832  .00000521  00000+0  51480-4 0  9995
2 55275  70.0010  55.5624 0002873 271.2274  88.8556 14.98319180 43119
STARLINK-5289           
1 55278U 23010K   23295.78207000 -.00001015  00000+0 -77304-4 0  9991
2 55278  70.0002  75.2133 0002551 255.2441 104.8436 14.98316793 42626
STARLINK-5298           
1 55281U 23010N   23296.12421252 -.00000296  00000+0 -17000-4 0  9998
2 55281  69.9994  74.4014 0003198 272.8250  87.2542 14.98326726 42378
STARLINK-5330           
1 55282U 23010P   23296.10334199 -.00001064  00000+0 -81374-4 0  9999
2 55282  70.0003  74.3249 0002480 256.3918 103.6965 14.98329803 42374
STARLINK-5317           
1 55283U 23010Q   23295.78623862  .00000033  00000+0  10580-4 0  9995
2 55283  69.9991  75.2275 0003098 268.8077  91.2727 14.98322765 42623
STARLINK-5337           
1 55284U 23010R   23296.09916803 -.00001089  00000+0 -83472-4 0  9995
2 55284  69.9996  74.3097 0003035 272.9768  87.1044 14.98330970 42370
STARLINK-5286           
1 55294U 23010AB  23296.10751576 -.00000942  00000+0 -71206-4 0  9991
2 55294  69.9996  74.3393 0002842 257.4212 102.6629 14.98329766 42370
STARLINK-5270           
1 55299U 23010AG  23295.75278747  .00000673  00000+0  64230-4 0  9998
2 55299  69.9999  55.2413 0003017 267.1832  92.8982 14.98323706 43999
STARLINK-5322           
1 55303U 23010AL  23295.82795377 -.00000224  00000+0 -10972-4 0  9993
2 55303  69.9989  74.9689 0002654 257.1807 102.9056 14.98322975 42636
STARLINK-5316           
1 55305U 23010AN  23295.73595682 -.00001005  00000+0 -76449-4 0  9991
2 55305  70.0007  55.5873 0002658 253.2957 106.7910 14.98319850 43112
STARLINK-5315           
1 55309U 23010AS  23295.70667691  .00000682  00000+0  64932-4 0  9994
2 55309  70.0019  35.6087 0002920 257.2301 102.8532 14.98319977 43605
STARLINK-5180           
1 55318U 23010BB  23295.68146491  .00000437  00000+0  44397-4 0  9992
2 55318  70.0013  35.5150 0002920 258.1011 101.9821 14.98319838 44470
STARLINK-5283           
1 55396U 23014F   23295.84070379  .00000217  00000+0  25950-4 0  9991
2 55396  69.9986  95.0007 0003090 268.9684  91.1121 14.98328501 41914
STARLINK-5275           
1 55398U 23014H   23295.85740145  .00000168  00000+0  21860-4 0  9990
2 55398  69.9984  95.0568 0003094 268.6812  91.3993 14.98326494 41918
STARLINK-5276           
1 55399U 23014J   23295.84905584 -.00000086  00000+0  57727-6 0  9993
2 55399  69.9991  95.0266 0002839 266.4563  93.6272 14.98323284 41916
STARLINK-5630           
1 55406U 23014R   23295.88662369 -.00000146  00000+0 -44538-5 0  9990
2 55406  70.0006  95.1620 0002106 283.7790  76.3134 14.98325887 41917
STARLINK-5092           
1 55408U 23014T   23295.89079203 -.00004970  00000+0 -40884-3 0  9999
2 55408  69.9996  95.1766 0002772 260.1698  99.9148 14.98345830 41916
STARLINK-5605           
1 55411U 23014W   23295.82821388 -.00000543  00000+0 -37758-4 0  9994
2 55411  69.9991  95.3589 0002769 267.6723  92.4118 14.98321578 41904
STARLINK-5033           
1 55412U 23014X   23295.93289838 -.00000306  00000+0 -17850-4 0  9993
2 55412  69.9986 114.7897 0003004 270.7072  89.3742 14.98327084 41436
STARLINK-5629           
1 55419U 23014AE  23295.94108159  .00000728  00000+0  68796-4 0  9998
2 55419  69.9983 114.8186 0003273 271.0648  89.0136 14.98329208 41437
STARLINK-5073           
1 55427U 23014AN  23295.89519230  .00000532  00000+0  52419-4 0  9995
2 55427  69.9979 115.0612 0003032 269.8426  90.2385 14.98326560 40482
STARLINK-5643           
1 55431U 23014AS  23295.91191295 -.00000348  00000+0 -21402-4 0  9995
2 55431  69.9977 115.1204 0003147 267.9014  92.1785 14.98315247 41422
STARLINK-5637           
1 55432U 23014AT  23295.89959964  .00000715  00000+0  67761-4 0  9992
2 55432  69.9975 134.9362 0003112 270.2263  89.8539 14.98322943 40936
STARLINK-5621           
1 55434U 23014AV  23295.91211505  .00002550  00000+0  22141-3 0  9990
2 55434  69.9982 134.9785 0003108 269.2668  90.8135 14.98329313 40939
STARLINK-5626           
1 55435U 23014AW  23295.90376609 -.00006076  00000+0 -50145-3 0  9991
2 55435  69.9980 134.9501 0003081 280.0287  80.0525 14.98361910 40935
ION SCV-009             
1 55441U 23014BC  23295.89700982  .00084682  00000+0  64510-3 0  9999
2 55441  70.0031  74.4679 0007086 300.3956  59.6540 15.71823519 41619
STARLINK-5303           
1 55630U 23021C   23296.18866183  .00000738  00000+0  69617-4 0  9990
2 55630  70.0009 234.3149 0002646 267.4902  92.5954 14.98328258 37904
STARLINK-5218           
1 55636U 23021J   23296.16777236  .00016635  00000+0  13969-2 0  9994
2 55636  70.0019 234.2394 0002767 253.6308 106.4547 14.98378036 37905
STARLINK-5508           
1 55639U 23021M   23295.89218516 -.00000800  00000+0 -59283-4 0  9997
2 55639  70.0017 215.0134 0002835 259.5552 100.5288 14.98315149 38653
STARLINK-5065           
1 55641U 23021P   23295.89235310 -.00001985  00000+0 -15867-3 0  9995
2 55641  70.0015 215.0140 0002709 260.0583 100.0270 14.98314082 38653
STARLINK-5487           
1 55652U 23021AA  23295.94642635 -.00000275  00000+0 -15294-4 0  9991
2 55652  70.0020 214.8027 0002457 256.9159 103.1726 14.98311071 38661
STARLINK-5267           
1 55655U 23021AD  23296.15483361  .00000034  00000+0  10675-4 0  9996
2 55655  70.0010 194.4543 0002672 265.4721  94.6132 14.98310593 38885
STARLINK-5459           
1 55669U 23021AT  23295.93785302  .00002088  00000+0  18274-3 0  9999
2 55669  70.0011 194.8978 0002843 265.6843  94.3991 14.98322062 39159
STARLINK-5423           
1 55670U 23021AU  23296.12561543 -.00000502  00000+0 -34321-4 0  9995
2 55670  70.0016 194.3483 0002867 246.3272 113.7587 14.98307134 38889
STARLINK-5463           
1 55673U 23021AX  23295.92116187 -.00001299  00000+0 -10112-3 0  9990
2 55673  70.0004 194.8384 0003109 274.4049  85.6755 14.98307679 39157
STARLINK-5593           
1 55763U 23028Y   23295.67172046  .00002257  00000+0  19697-3 0  9995
2 55763  69.9998 275.3956 0002149 267.6192  92.4720 14.98317643 35877
STARLINK-5499           
1 55764U 23028Z   23296.10128219 -.00001322  00000+0 -10302-3 0  9996
2 55764  70.0007 254.6060 0002841 272.6035  87.4799 14.98323623 36426
STARLINK-5595           
1 55765U 23028AA  23296.03870186  .00005047  00000+0  43096-3 0  9998
2 55765  70.0009 254.7887 0002346 265.6023  94.4868 14.98283962 36400
STARLINK-5812           
1 55774U 23028AK  23295.93853399 -.00001982  00000+0 -15839-3 0  9993
2 55774  70.0021 254.8406 0002509 263.4441  96.6432 14.98325638 36401
STARLINK-5814           
1 55777U 23028AN  23296.05953571  .00001646  00000+0  14572-3 0  9991
2 55777  70.0007 254.4582 0002090 259.4775 100.6148 14.98315127 36423
STARLINK-5825           
1 55783U 23028AU  23296.08853923 -.00001136  00000+0 -87499-4 0  9996
2 55783  70.0010 234.6840 0002593 267.3422  92.7440 14.98314317 36916
STARLINK-5818           
1 55785U 23028AW  23296.08436435 -.00000709  00000+0 -51685-4 0  9996
2 55785  70.0008 234.6689 0002394 259.0885 101.0005 14.98311798 36906
STARLINK-5823           
1 55786U 23028AX  23296.13859685 -.00000634  00000+0 -45391-4 0  9993
2 55786  70.0009 234.4586 0002651 258.4783 101.6079 14.98319927 36918
STARLINK-5796           
1 55916U 23037C   23296.20651209  .00000600  00000+0  58066-4 0  9992
2 55916  70.0008 334.3414 0002825 274.0713  86.0123 14.98331317 33732
STARLINK-5867           
1 55918U 23037E   23295.53474018  .00002592  00000+0  22497-3 0  9990
2 55918  70.0003 336.0101 0002722 272.5631  87.5217 14.98330024 33294
STARLINK-5854           
1 55923U 23037K   23295.51803973 -.00000949  00000+0 -71710-4 0  9999
2 55923  69.9989 335.9500 0002792 266.3329  93.7511 14.98337160 33297
STARLINK-5849           
1 55924U 23037L   23296.19376826 -.00000356  00000+0 -22026-4 0  9995
2 55924  69.9991 314.4139 0002930 270.3956  89.6867 14.98324739 34226
STARLINK-5882           
1 55936U 23037Y   23296.18116257 -.00001033  00000+0 -78819-4 0  9991
2 55936  69.9982 294.0817 0002634 266.2969  93.7889 14.98321225 34726
STARLINK-5926           
1 55944U 23037AG  23296.14367665 -.00000334  00000+0 -20243-4 0  9998
2 55944  69.9986 314.2353 0002791 266.2690  93.8150 14.98327673 34224
STARLINK-5925           
1 55945U 23037AH  23296.15619799 -.00003224  00000+0 -26246-3 0  9997
2 55945  69.9993 314.2819 0002241 268.1356  91.9546 14.98344618 34226
